{
  "type": "FeatureCollection",
  "features": [
    {
      "type": "Feature",
      "properties": {
        "norad_id": 55973,
        "name": "TIANMU-1 03",
        "group": "weather",
        "lat": 49.889185697137385,
        "lon": 131.86506719101166,
        "alt_km": 437.3938634335982,
        "timestamp": "2025-12-04T10:51:49.749739+00:00",
        "meta_object_name": "TIANMU-1 03",
        "meta_object_id": "2023-039A",
        "meta_epoch": "2025-12-04T04:24:35.794368",
        "meta_mean_motion": 15.40538548,
        "meta_eccentricity": 0.0004575,
        "meta_inclination": 97.5102,
        "meta_ra_of_asc_node": 140.599,
        "meta_arg_of_pericenter": 85.6934,
        "meta_mean_anomaly": 274.4835,
        "meta_ephemeris_type": 0,
        "meta_classification_type": "U",
        "meta_norad_cat_id": 55973,
        "meta_element_set_no": 999,
        "meta_rev_at_epoch": 15074,
        "meta_bstar": 0.00077619,
        "meta_mean_motion_dot": 0.00031535,
        "meta_mean_motion_ddot": 0,
        "tle_line1": "1 55973U 23039A   25338.18374762  .00031535  00000+0  77619-3 0  9994",
        "tle_line2": "2 55973  97.5102 140.5990 0004575  85.6934 274.4835 15.40538548150742"
      },
      "geometry": {
        "type": "Point",
        "coordinates": [
          131.86506719101166,
          49.889185697137385
        ]
      }
    },
    {
      "type": "Feature",
      "properties": {
        "norad_id": 55974,
        "name": "TIANMU-1 04",
        "group": "weather",
        "lat": 24.989573938395196,
        "lon": -36.40827403926936,
        "alt_km": 441.8653987006519,
        "timestamp": "2025-12-04T10:51:49.749752+00:00",
        "meta_object_name": "TIANMU-1 04",
        "meta_object_id": "2023-039B",
        "meta_epoch": "2025-12-04T05:31:10.386912",
        "meta_mean_motion": 15.40873315,
        "meta_eccentricity": 0.0005239,
        "meta_inclination": 97.5035,
        "meta_ra_of_asc_node": 139.841,
        "meta_arg_of_pericenter": 81.7253,
        "meta_mean_anomaly": 278.4587,
        "meta_ephemeris_type": 0,
        "meta_classification_type": "U",
        "meta_norad_cat_id": 55974,
        "meta_element_set_no": 999,
        "meta_rev_at_epoch": 15075,
        "meta_bstar": 0.00081629,
        "meta_mean_motion_dot": 0.00033549,
        "meta_mean_motion_ddot": 0,
        "tle_line1": "1 55974U 23039B   25338.22998133  .00033549  00000+0  81629-3 0  9997",
        "tle_line2": "2 55974  97.5035 139.8410 0005239  81.7253 278.4587 15.40873315150758"
      },
      "geometry": {
        "type": "Point",
        "coordinates": [
          -36.40827403926936,
          24.989573938395196
        ]
      }
    },
    {
      "type": "Feature",
      "properties": {
        "norad_id": 55975,
        "name": "TIANMU-1 05",
        "group": "weather",
        "lat": -17.714206198076422,
        "lon": -41.852890575270195,
        "alt_km": 450.0070226994094,
        "timestamp": "2025-12-04T10:51:49.749762+00:00",
        "meta_object_name": "TIANMU-1 05",
        "meta_object_id": "2023-039C",
        "meta_epoch": "2025-12-04T05:19:53.875776",
        "meta_mean_motion": 15.40500895,
        "meta_eccentricity": 0.0004332,
        "meta_inclination": 97.5081,
        "meta_ra_of_asc_node": 140.3249,
        "meta_arg_of_pericenter": 102.156,
        "meta_mean_anomaly": 258.0171,
        "meta_ephemeris_type": 0,
        "meta_classification_type": "U",
        "meta_norad_cat_id": 55975,
        "meta_element_set_no": 999,
        "meta_rev_at_epoch": 15073,
        "meta_bstar": 0.0008209,
        "meta_mean_motion_dot": 0.00033321,
        "meta_mean_motion_ddot": 0,
        "tle_line1": "1 55975U 23039C   25338.22215134  .00033321  00000+0  82090-3 0  9992",
        "tle_line2": "2 55975  97.5081 140.3249 0004332 102.1560 258.0171 15.40500895150730"
      },
      "geometry": {
        "type": "Point",
        "coordinates": [
          -41.852890575270195,
          -17.714206198076422
        ]
      }
    },
    {
      "type": "Feature",
      "properties": {
        "norad_id": 55976,
        "name": "TIANMU-1 06",
        "group": "weather",
        "lat": 38.48646347876706,
        "lon": -32.96027403840448,
        "alt_km": 438.24405008010945,
        "timestamp": "2025-12-04T10:51:49.749772+00:00",
        "meta_object_name": "TIANMU-1 06",
        "meta_object_id": "2023-039D",
        "meta_epoch": "2025-12-04T04:01:12.603936",
        "meta_mean_motion": 15.40921573,
        "meta_eccentricity": 0.000469,
        "meta_inclination": 97.5092,
        "meta_ra_of_asc_node": 140.7268,
        "meta_arg_of_pericenter": 98.0343,
        "meta_mean_anomaly": 262.1435,
        "meta_ephemeris_type": 0,
        "meta_classification_type": "U",
        "meta_norad_cat_id": 55976,
        "meta_element_set_no": 999,
        "meta_rev_at_epoch": 15074,
        "meta_bstar": 0.00077802,
        "meta_mean_motion_dot": 0.00032014,
        "meta_mean_motion_ddot": 0,
        "tle_line1": "1 55976U 23039D   25338.16750699  .00032014  00000+0  77802-3 0  9999",
        "tle_line2": "2 55976  97.5092 140.7268 0004690  98.0343 262.1435 15.40921573150747"
      },
      "geometry": {
        "type": "Point",
        "coordinates": [
          -32.96027403840448,
          38.48646347876706
        ]
      }
    },
    {
      "type": "Feature",
      "properties": {
        "norad_id": 56232,
        "name": "FENGYUN 3G",
        "group": "weather",
        "lat": 20.682143704258344,
        "lon": 71.70926993994615,
        "alt_km": 401.32101121200503,
        "timestamp": "2025-12-04T10:51:49.749782+00:00",
        "meta_object_name": "FENGYUN 3G",
        "meta_object_id": "2023-055A",
        "meta_epoch": "2025-12-03T23:24:01.752192",
        "meta_mean_motion": 15.52834641,
        "meta_eccentricity": 0.00092367,
        "meta_inclination": 49.9947,
        "meta_ra_of_asc_node": 272.6575,
        "meta_arg_of_pericenter": 106.4167,
        "meta_mean_anomaly": 253.7816,
        "meta_ephemeris_type": 0,
        "meta_classification_type": "U",
        "meta_norad_cat_id": 56232,
        "meta_element_set_no": 999,
        "meta_rev_at_epoch": 14966,
        "meta_bstar": 0.00080679572,
        "meta_mean_motion_dot": 0.0005097,
        "meta_mean_motion_ddot": 0,
        "tle_line1": "1 56232U 23055A   25337.97502028  .00050970  00000+0  80680-3 0  9991",
        "tle_line2": "2 56232  49.9947 272.6575 0009236 106.4167 253.7816 15.52834641149668"
      },
      "geometry": {
        "type": "Point",
        "coordinates": [
          71.70926993994615,
          20.682143704258344
        ]
      }
    },
    {
      "type": "Feature",
      "properties": {
        "norad_id": 57166,
        "name": "METEOR-M2 3",
        "group": "weather",
        "lat": -81.046907679327,
        "lon": 137.3426663751678,
        "alt_km": 820.8322729337515,
        "timestamp": "2025-12-04T10:51:49.749795+00:00",
        "meta_object_name": "METEOR-M2 3",
        "meta_object_id": "2023-091A",
        "meta_epoch": "2025-12-04T04:33:05.698656",
        "meta_mean_motion": 14.24024553,
        "meta_eccentricity": 0.0004364,
        "meta_inclination": 98.639,
        "meta_ra_of_asc_node": 31.8779,
        "meta_arg_of_pericenter": 31.8139,
        "meta_mean_anomaly": 328.3303,
        "meta_ephemeris_type": 0,
        "meta_classification_type": "U",
        "meta_norad_cat_id": 57166,
        "meta_element_set_no": 999,
        "meta_rev_at_epoch": 12676,
        "meta_bstar": 5.3052e-05,
        "meta_mean_motion_dot": 7.8e-07,
        "meta_mean_motion_ddot": 0,
        "tle_line1": "1 57166U 23091A   25338.18964929  .00000078  00000+0  53052-4 0  9992",
        "tle_line2": "2 57166  98.6390  31.8779 0004364  31.8139 328.3303 14.24024553126763"
      },
      "geometry": {
        "type": "Point",
        "coordinates": [
          137.3426663751678,
          -81.046907679327
        ]
      }
    },
    {
      "type": "Feature",
      "properties": {
        "norad_id": 57399,
        "name": "TIANMU-1 07",
        "group": "weather",
        "lat": -58.08360607302985,
        "lon": -163.37281433224138,
        "alt_km": 492.0715856599927,
        "timestamp": "2025-12-04T10:51:49.749805+00:00",
        "meta_object_name": "TIANMU-1 07",
        "meta_object_id": "2023-101A",
        "meta_epoch": "2025-12-04T03:32:06.173088",
        "meta_mean_motion": 15.27877348,
        "meta_eccentricity": 0.0005619,
        "meta_inclination": 97.2892,
        "meta_ra_of_asc_node": 28.188,
        "meta_arg_of_pericenter": 103.4101,
        "meta_mean_anomaly": 256.7765,
        "meta_ephemeris_type": 0,
        "meta_classification_type": "U",
        "meta_norad_cat_id": 57399,
        "meta_element_set_no": 999,
        "meta_rev_at_epoch": 13184,
        "meta_bstar": 0.00057645,
        "meta_mean_motion_dot": 0.00015638,
        "meta_mean_motion_ddot": 0,
        "tle_line1": "1 57399U 23101A   25338.14729367  .00015638  00000+0  57645-3 0  9992",
        "tle_line2": "2 57399  97.2892  28.1880 0005619 103.4101 256.7765 15.27877348131847"
      },
      "geometry": {
        "type": "Point",
        "coordinates": [
          -163.37281433224138,
          -58.08360607302985
        ]
      }
    }
  ]
}